{
"type": "FeatureCollection",
"name": "additional_eddit_venue_boundaries",
"crs": { "type": "name", "properties": { "name": "urn:ogc:def:crs:OGC:1.3:CRS84" } },
"features": [
{ "type": "Feature", "properties": { "fid": 88, "venue_name": "The Village at Black Creek", "address": null, "postal_code": null }, "geometry": { "type": "Polygon", "coordinates": [ [ [ -79.516647382726759, 43.773097563880981 ], [ -79.517589985065186, 43.772907769974452 ], [ -79.519756157746727, 43.774334481827616 ], [ -79.521215378674441, 43.775152535197037 ], [ -79.520580934792804, 43.775407765557858 ], [ -79.519284856577528, 43.775669539155295 ], [ -79.517209318736192, 43.776042564551659 ], [ -79.516402668658159, 43.774635526768925 ], [ -79.515822605680668, 43.774079246885925 ], [ -79.51585885961677, 43.773896000614961 ], [ -79.516556747886554, 43.773640763801801 ], [ -79.516511430466437, 43.77351641726743 ], [ -79.516647382726759, 43.773097563880981 ] ] ] } },
{ "type": "Feature", "properties": { "fid": 89, "venue_name": "Barry Zuckerman Amphitheatre (Earl Bales Park)", "address": null, "postal_code": null }, "geometry": { "type": "Polygon", "coordinates": [ [ [ -79.433232369592019, 43.753942505729192 ], [ -79.432757665657448, 43.753904628728243 ], [ -79.432407157519705, 43.754060123631987 ], [ -79.432238803217288, 43.754367125204318 ], [ -79.432357479200945, 43.754436898069294 ], [ -79.43245959574503, 43.754466800700811 ], [ -79.432683148179308, 43.754494709810082 ], [ -79.432832183135517, 43.754484742272552 ], [ -79.432942579399395, 43.754458826667211 ], [ -79.433030896410486, 43.754416962973316 ], [ -79.433121973328184, 43.754351177109484 ], [ -79.433213050245854, 43.75423355977874 ], [ -79.433271008284393, 43.754135877413091 ], [ -79.433279288004144, 43.754028227274418 ], [ -79.433232369592019, 43.753942505729192 ] ] ] } },
{ "type": "Feature", "properties": { "fid": 90, "venue_name": "Lee Lifeson Art Park Amphitheatre", "address": null, "postal_code": null }, "geometry": { "type": "Polygon", "coordinates": [ [ [ -79.409707814788263, 43.768940496921289 ], [ -79.409520932307032, 43.76878031713597 ], [ -79.409529665133235, 43.768731127981965 ], [ -79.409529665133235, 43.768700857713227 ], [ -79.409538397959466, 43.768669326167014 ], [ -79.40957332926439, 43.768636533341301 ], [ -79.409623979656502, 43.768610046815112 ], [ -79.409693842266293, 43.768597434179469 ], [ -79.409795143050488, 43.768586082805115 ], [ -79.409913909487145, 43.768592389124464 ], [ -79.40996281331401, 43.768599956706808 ], [ -79.410001237749398, 43.768689506358506 ], [ -79.409980278966444, 43.768794190992615 ], [ -79.409938361400577, 43.768845902611751 ], [ -79.409838807181615, 43.768908965501396 ], [ -79.409707814788263, 43.768940496921289 ] ] ] } },
{ "type": "Feature", "properties": { "fid": 91, "venue_name": "Downsview Park (Festival Terrace)", "address": null, "postal_code": null }, "geometry": { "type": "Polygon", "coordinates": [ [ [ -79.481772428338488, 43.745336049882546 ], [ -79.481656362070495, 43.745434571932648 ], [ -79.481540295802574, 43.745507939311452 ], [ -79.481403917937726, 43.745568729357174 ], [ -79.481247228475965, 43.745619038313848 ], [ -79.48109924398436, 43.745648385185703 ], [ -79.480959964462798, 43.745658866207897 ], [ -79.480791668374238, 43.745648385185703 ], [ -79.48061756897232, 43.745606461078637 ], [ -79.480498601047671, 43.745560344526943 ], [ -79.48031289501894, 43.745451341627152 ], [ -79.480217140347889, 43.745357012034447 ], [ -79.480109779050039, 43.745189314613725 ], [ -79.480069155856228, 43.744981788405155 ], [ -79.480112680706739, 43.744795223825804 ], [ -79.480254861884973, 43.744602369941582 ], [ -79.480411551346691, 43.744482884071175 ], [ -79.480652388852704, 43.744386456703609 ], [ -79.480919341269029, 43.74434033921203 ], [ -79.481163080431699, 43.744346627962983 ], [ -79.481438737818124, 43.744422092922754 ], [ -79.481607033906627, 43.744510135255588 ], [ -79.481740510114776, 43.744625428590872 ], [ -79.481847871412654, 43.744788935121989 ], [ -79.481897199576537, 43.74492728645334 ], [ -79.481891396263137, 43.745097080832075 ], [ -79.481856576382725, 43.74522914279369 ], [ -79.481772428338488, 43.745336049882546 ] ] ] } },
{ "type": "Feature", "properties": { "fid": 92, "venue_name": "Downsview Park (Discovery Centre)", "address": null, "postal_code": null }, "geometry": { "type": "Polygon", "coordinates": [ [ [ -79.484440483206726, 43.743943269090103 ], [ -79.484085801095802, 43.744021253756898 ], [ -79.483971685981857, 43.743756105475306 ], [ -79.484332536477339, 43.743680348607711 ], [ -79.484440483206726, 43.743943269090103 ] ] ] } },
{ "type": "Feature", "properties": { "fid": 93, "venue_name": "Colombus Centre", "address": null, "postal_code": null }, "geometry": { "type": "Polygon", "coordinates": [ [ [ -79.455892369894542, 43.713009518331468 ], [ -79.455789951777803, 43.713019009210868 ], [ -79.455803082305607, 43.713091139845211 ], [ -79.455761064616681, 43.713098732538505 ], [ -79.455774195144485, 43.713189844783074 ], [ -79.455753186300015, 43.713189844783074 ], [ -79.455732177455559, 43.713100630711679 ], [ -79.455747934088905, 43.713100630711679 ], [ -79.45574005577221, 43.713070259933666 ], [ -79.455632385444403, 43.713075954455704 ], [ -79.45566389871108, 43.713224011839074 ], [ -79.455700664188868, 43.713224011839074 ], [ -79.455705916399992, 43.713239197191051 ], [ -79.455782073461151, 43.713237299022268 ], [ -79.455800456200038, 43.713288549558371 ], [ -79.456454356483732, 43.713241095359777 ], [ -79.456680201561625, 43.713318920225767 ], [ -79.456727471461633, 43.713413828462151 ], [ -79.456921803272877, 43.713377763350024 ], [ -79.45695856875065, 43.71346128252398 ], [ -79.457428641645365, 43.713360679868281 ], [ -79.457389250061993, 43.713269567883451 ], [ -79.457360362900886, 43.713277160554142 ], [ -79.45735248458422, 43.713244891697045 ], [ -79.457412885012019, 43.713224011839074 ], [ -79.4572238054119, 43.712774144041454 ], [ -79.456927055483987, 43.71284437678927 ], [ -79.456832515683914, 43.712943082133577 ], [ -79.456751106411673, 43.71295636937905 ], [ -79.456703836511636, 43.712846274970516 ], [ -79.456669697139404, 43.712853867694839 ], [ -79.456638183872727, 43.71281210769915 ], [ -79.456596166183814, 43.712793125873311 ], [ -79.456548896283778, 43.712779838591651 ], [ -79.456485869750423, 43.712779838591651 ], [ -79.456420217111486, 43.71280071860437 ], [ -79.456375573317032, 43.712848173151684 ], [ -79.456359816683687, 43.712888034942374 ], [ -79.456359816683687, 43.712920303991638 ], [ -79.456359816683687, 43.712958267556736 ], [ -79.456241641933602, 43.712975351153183 ], [ -79.456278407411418, 43.713106325230846 ], [ -79.455923883161219, 43.713138594162551 ], [ -79.455892369894542, 43.713009518331468 ] ] ] } },
{ "type": "Feature", "properties": { "fid": 94, "venue_name": "Glendon Theatre", "address": null, "postal_code": null }, "geometry": { "type": "Polygon", "coordinates": [ [ [ -79.377820742926858, 43.727519659583557 ], [ -79.377497253104579, 43.727570020541265 ], [ -79.377465008138373, 43.727450507154742 ], [ -79.377785377480023, 43.727393381175069 ], [ -79.377820742926858, 43.727519659583557 ] ] ] } },
{ "type": "Feature", "properties": { "fid": 95, "venue_name": "Dandelion Terrace (Toronto Botanical Garden)", "address": null, "postal_code": null }, "geometry": { "type": "Polygon", "coordinates": [ [ [ -79.359479132246278, 43.734021006053901 ], [ -79.359134484126614, 43.73410603988949 ], [ -79.35908404781641, 43.73402252451632 ], [ -79.359184920436817, 43.734007339890496 ], [ -79.359166006820473, 43.733963304453859 ], [ -79.359262676415028, 43.733948119813036 ], [ -79.3592017325402, 43.733823605612983 ], [ -79.359359346009569, 43.7337871623835 ], [ -79.35948123375924, 43.734017969128985 ], [ -79.359479132246278, 43.734021006053901 ] ] ] } },
{ "type": "Feature", "properties": { "fid": 96, "venue_name": "Agincourt Toronto Public Library", "address": null, "postal_code": null }, "geometry": { "type": "Polygon", "coordinates": [ [ [ -79.293767780462048, 43.784995512428644 ], [ -79.293198806139131, 43.785119941462455 ], [ -79.293389832621301, 43.785559142693877 ], [ -79.293435428739514, 43.785562135186332 ], [ -79.293485169959411, 43.785532210255063 ], [ -79.293539056280963, 43.785487322830072 ], [ -79.293767036872069, 43.785101289583778 ], [ -79.293740224065274, 43.785053591128424 ], [ -79.293786343757958, 43.785045535719995 ], [ -79.293767780462048, 43.784995512428644 ] ] ] } },
{ "type": "Feature", "properties": { "fid": 97, "venue_name": "Birkdale Community Centre", "address": null, "postal_code": null }, "geometry": { "type": "Polygon", "coordinates": [ [ [ -79.26361400755448, 43.76802271358526 ], [ -79.263672718174689, 43.768048152177926 ], [ -79.263818320512826, 43.76802271358526 ], [ -79.263844153185715, 43.768071894854629 ], [ -79.263938090178058, 43.768066807138993 ], [ -79.263970968125363, 43.768154994148915 ], [ -79.264006194497497, 43.768153298246098 ], [ -79.264053162993676, 43.768248268729465 ], [ -79.264078995666566, 43.768246572829298 ], [ -79.264137706286775, 43.768385636483266 ], [ -79.263766655167046, 43.768444992822474 ], [ -79.26361400755448, 43.76802271358526 ] ] ] } },
{ "type": "Feature", "properties": { "fid": 98, "venue_name": "Cedarbrook Community Centre", "address": null, "postal_code": null }, "geometry": { "type": "Polygon", "coordinates": [ [ [ -79.227624764189187, 43.75554467625485 ], [ -79.227326760552103, 43.755501626810435 ], [ -79.227306893642975, 43.755575169592582 ], [ -79.227145475006196, 43.755557232336976 ], [ -79.227110707915216, 43.755654093453366 ], [ -79.227262193097388, 43.755688174179248 ], [ -79.227242326188247, 43.755725842327386 ], [ -79.227575096916325, 43.755788622521592 ], [ -79.227637181007381, 43.755550057433233 ], [ -79.227624764189187, 43.75554467625485 ] ] ] } },
{ "type": "Feature", "properties": { "fid": 99, "venue_name": "Woodside Square Cinemas", "address": null, "postal_code": null }, "geometry": { "type": "Polygon", "coordinates": [ [ [ -79.269531609743495, 43.810247440998978 ], [ -79.269635878716528, 43.81010584476001 ], [ -79.269228281821938, 43.80995740776261 ], [ -79.269159085139833, 43.81005864593908 ], [ -79.269340133993012, 43.810132522337945 ], [ -79.269306957501598, 43.810170828582862 ], [ -79.269531609743495, 43.810247440998978 ] ] ] } },
{ "type": "Feature", "properties": { "fid": 100, "venue_name": "Humber Valley United Church", "address": null, "postal_code": null }, "geometry": { "type": "Polygon", "coordinates": [ [ [ -79.528659576400727, 43.664910375283874 ], [ -79.528514983765064, 43.665019100894916 ], [ -79.528981104761627, 43.665365920515441 ], [ -79.529140917674724, 43.665265453133102 ], [ -79.529121892327936, 43.665247561663826 ], [ -79.529199896249807, 43.665196639760516 ], [ -79.529182773437682, 43.665170490658248 ], [ -79.529361611697595, 43.665101677176779 ], [ -79.529306438191867, 43.664997080533908 ], [ -79.529017252920539, 43.665082409387843 ], [ -79.528967787018843, 43.66504800260649 ], [ -79.52892022365188, 43.66504800260649 ], [ -79.528659576400727, 43.664910375283874 ] ] ] } },
{ "type": "Feature", "properties": { "fid": 101, "venue_name": "Montgomery's Inn", "address": null, "postal_code": null }, "geometry": { "type": "Polygon", "coordinates": [ [ [ -79.525881430468942, 43.651664113676027 ], [ -79.525773387664941, 43.651614366347012 ], [ -79.525736554890827, 43.65166056029674 ], [ -79.525486092026981, 43.651553958820664 ], [ -79.525429615106688, 43.651626803183142 ], [ -79.525660433824356, 43.651733404529907 ], [ -79.525621145532, 43.651774268329348 ], [ -79.525734099372571, 43.651824015525897 ], [ -79.525881430468942, 43.651664113676027 ] ] ] } },
{ "type": "Feature", "properties": { "fid": 102, "venue_name": "Nelson Park Creative Centre", "address": null, "postal_code": null }, "geometry": { "type": "Polygon", "coordinates": [ [ [ -79.568323473192592, 43.629621666911895 ], [ -79.568292600804071, 43.629476418353136 ], [ -79.568223137929976, 43.629482004842664 ], [ -79.568211560784292, 43.629423346676823 ], [ -79.568076494084622, 43.629437312911961 ], [ -79.568049480744691, 43.629384241201109 ], [ -79.567860387365158, 43.629412173686347 ], [ -79.567871964510843, 43.629428933171269 ], [ -79.56772917971405, 43.629442899405127 ], [ -79.56774461590831, 43.6295239034975 ], [ -79.567771629248227, 43.629518317011886 ], [ -79.567771629248227, 43.629543456193105 ], [ -79.567740756859735, 43.629554629159166 ], [ -79.567740756859735, 43.629624460149962 ], [ -79.567756193053967, 43.629624460149962 ], [ -79.567787065442488, 43.629719430167263 ], [ -79.568199983638593, 43.629669151941513 ], [ -79.568196124590045, 43.62963563310096 ], [ -79.568323473192592, 43.629621666911895 ] ] ] } },
{ "type": "Feature", "properties": { "fid": 103, "venue_name": "High Park Amphitheatre", "address": null, "postal_code": null }, "geometry": { "type": "Polygon", "coordinates": [ [ [ -79.462258321206633, 43.646090697831255 ], [ -79.461569812718977, 43.646559700976916 ], [ -79.461650549870626, 43.646606763374152 ], [ -79.461735772419573, 43.64665869425243 ], [ -79.46182548036586, 43.646679791158917 ], [ -79.461924159106744, 43.646697642381675 ], [ -79.462056478327511, 43.64668790535174 ], [ -79.462150671671097, 43.646674922642696 ], [ -79.462251593110665, 43.646648957216193 ], [ -79.462327844864987, 43.64661487757683 ], [ -79.462401853920667, 43.646551586766769 ], [ -79.462460164085755, 43.646491541577632 ], [ -79.462466892181709, 43.646441233399976 ], [ -79.462480348373674, 43.646389302333674 ], [ -79.462475862976348, 43.646330879830444 ], [ -79.462460164085755, 43.646282194367679 ], [ -79.462422038208572, 43.64619780613873 ], [ -79.462381669632748, 43.646145874862 ], [ -79.462332330262285, 43.646108549229105 ], [ -79.462291961686475, 43.646084206412539 ], [ -79.462258321206633, 43.646090697831255 ] ] ] } },
{ "type": "Feature", "properties": { "fid": 104, "venue_name": "Revue Cinema", "address": null, "postal_code": null }, "geometry": { "type": "Polygon", "coordinates": [ [ [ -79.451449596639904, 43.651068678869578 ], [ -79.451412288871154, 43.650959801786385 ], [ -79.451014339337718, 43.651029987036175 ], [ -79.451051647106496, 43.651147862078822 ], [ -79.451449596639904, 43.651068678869578 ] ] ] } },
{ "type": "Feature", "properties": { "fid": 105, "venue_name": "Gallery 1313", "address": null, "postal_code": null }, "geometry": { "type": "Polygon", "coordinates": [ [ [ -79.43349816185389, 43.641135881773295 ], [ -79.433441250049512, 43.64098188272682 ], [ -79.433122049059619, 43.641048138178924 ], [ -79.433178960864026, 43.641200346373203 ], [ -79.43349816185389, 43.641135881773295 ] ] ] } },
{ "type": "Feature", "properties": { "fid": 106, "venue_name": "The Assembly Theatre", "address": null, "postal_code": null }, "geometry": { "type": "Polygon", "coordinates": [ [ [ -79.439403454136652, 43.639971991591928 ], [ -79.439333058989234, 43.639780396400809 ], [ -79.439259603183245, 43.639794793748536 ], [ -79.439328468001378, 43.63998749637836 ], [ -79.439403454136652, 43.639971991591928 ] ] ] } },
{ "type": "Feature", "properties": { "fid": 107, "venue_name": "Parkdale Hall", "address": null, "postal_code": null }, "geometry": { "type": "Polygon", "coordinates": [ [ [ -79.444377177682981, 43.638971939388149 ], [ -79.444282878132697, 43.638704347214748 ], [ -79.443746859636263, 43.638799531144535 ], [ -79.443858530156376, 43.639068918807773 ], [ -79.444377177682981, 43.638971939388149 ] ] ] } }
]
}
